NORAD_CAT_ID,OBJECT_NAME,OBJECT_TYPE,EPOCH,MEAN_MOTION,ECCENTRICITY,INCLINATION,RA_OF_ASC_NODE,ARG_OF_PERICENTER,MEAN_ANOMALY,BSTAR,MEAN_MOTION_DOT,MEAN_MOTION_DDOT,TLE_LINE0,TLE_LINE1,TLE_LINE2,SEMIMAJOR_AXIS,PERIOD,APOGEE,PERIGEE,DECAYED
54064.0,STARLINK-5172,PAYLOAD,2024-01-20 13:58:41,15.08836663,0.0001414,53.2163,196.8422,120.3661,239.7472,-1.2326e-05,-4.84e-06,0.0,0 STARLINK-5172,1 54064U 22136P   24020.58242461 -.00000484  00000-0 -12326-4 0  9999,2 54064  53.2163 196.8422 0001414 120.3661 239.7472 15.08836663 69850,6917.891,95.438,540.734,538.777,0.0
54064.0,STARLINK-5172,PAYLOAD,2024-01-20 17:09:27,15.08836321,0.000136,53.2164,196.2478,107.4951,252.619,-1.1175e-05,-4.66e-06,0.0,0 STARLINK-5172,1 54064U 22136P   24020.71490584 -.00000466  00000-0 -11175-4 0  9996,2 54064  53.2164 196.2478 0001360 107.4951 252.6190 15.08836321 70353,6917.892,95.438,540.697,538.816,0.0
54064.0,STARLINK-5172,PAYLOAD,2024-01-21 18:35:38,15.0884088,0.0001199,53.2164,191.4948,88.5991,271.5138,9.9017e-06,-1.3e-06,0.0,0 STARLINK-5172,1 54064U 22136P   24021.77474767 -.00000130  00000-0  99017-5 0  9997,2 54064  53.2164 191.4948 0001199  88.5991 271.5138 15.08840880 70510,6917.878,95.437,540.572,538.913,0.0
54064.0,STARLINK-5172,PAYLOAD,2024-01-21 21:46:24,15.08843035,0.0001194,53.2165,190.8997,87.9772,272.1357,-7.727e-06,-4.11e-06,0.0,0 STARLINK-5172,1 54064U 22136P   24021.90722646 -.00000411  00000-0 -77270-5 0  9994,2 54064  53.2165 190.8997 0001194  87.9772 272.1357 15.08843035 70057,6917.871,95.437,540.562,538.91,0.0
54064.0,STARLINK-5172,PAYLOAD,2024-01-22 18:26:24,15.08844146,0.000114,53.2163,187.0343,85.8037,274.3085,0.00019521,2.821e-05,0.0,0 STARLINK-5172,1 54064U 22136P   24022.76834358  .00002821  00000-0  19521-3 0  9991,2 54064  53.2163 187.0343 0001140  85.8037 274.3085 15.08844146 70180,6917.868,95.437,540.521,538.944,0.0
54064.0,STARLINK-5172,PAYLOAD,2024-01-23 16:41:48,15.08845918,0.0001209,53.2163,182.8713,79.9862,280.1266,0.00012591,1.717e-05,0.0,0 STARLINK-5172,1 54064U 22136P   24023.69570477  .00001717  00000-0  12591-3 0  9996,2 54064  53.2163 182.8713 0001209  79.9862 280.1266 15.08845918 70803,6917.862,95.437,540.564,538.891,0.0
54064.0,STARLINK-5172,PAYLOAD,2024-01-23 18:17:11,15.08847634,0.000122,53.2164,182.5737,80.7486,279.3644,0.00013001,1.782e-05,0.0,0 STARLINK-5172,1 54064U 22136P   24023.76194241  .00001782  00000-0  13001-3 0  9994,2 54064  53.2164 182.5737 0001220  80.7486 279.3644 15.08847634 70337,6917.857,95.437,540.566,538.878,0.0
54064.0,STARLINK-5172,PAYLOAD,2024-01-24 14:57:13,15.08847062,0.0001664,53.219,178.7109,57.8969,302.2185,-5.4988e-05,-1.163e-05,0.0,0 STARLINK-5172,1 54064U 22136P   24024.62306964 -.00001163  00000-0 -54988-4 0  9992,2 54064  53.2190 178.7109 0001664  57.8969 302.2185 15.08847062 70464,6917.859,95.437,540.875,538.573,0.0
54064.0,STARLINK-5172,PAYLOAD,2024-01-24 16:32:36,15.08855574,0.000184,53.2185,178.4112,84.5756,275.5446,-0.00019756,-3.432e-05,0.0,0 STARLINK-5172,1 54064U 22136P   24024.68930606 -.00003432  00000-0 -19756-3 0  9998,2 54064  53.2185 178.4112 0001840  84.5756 275.5446 15.08855574 70476,6917.833,95.437,540.971,538.425,0.0
54064.0,STARLINK-5172,PAYLOAD,2024-01-25 14:48:00,15.0883796,0.0001893,53.2167,174.258,142.2736,217.8389,-6.5288e-05,-1.327e-05,0.0,0 STARLINK-5172,1 54064U 22136P   24025.61667191 -.00001327  00000-0 -65288-4 0  9991,2 54064  53.2167 174.2580 0001893 142.2736 217.8389 15.08837960 70617,6917.887,95.438,541.061,538.442,0.0
54064.0,STARLINK-5172,PAYLOAD,2024-01-25 16:23:23,15.08835866,0.0001193,53.2174,173.9549,109.892,250.22,-6.7961e-05,-1.369e-05,0.0,0 STARLINK-5172,1 54064U 22136P   24025.68291421 -.00001369  00000-0 -67961-4 0  9993,2 54064  53.2174 173.9549 0001193 109.8920 250.2200 15.08835866 71104,6917.893,95.438,540.583,538.933,0.0
54064.0,STARLINK-5172,PAYLOAD,2024-01-26 14:38:48,15.08833379,0.0001569,53.218,169.7904,62.4258,297.6893,7.9727e-05,9.81e-06,0.0,0 STARLINK-5172,1 54064U 22136P   24026.61027962  .00000981  00000-0  79727-4 0  9994,2 54064  53.2180 169.7904 0001569  62.4258 297.6893 15.08833379 70765,6917.901,95.438,540.851,538.68,0.0
54064.0,STARLINK-5172,PAYLOAD,2024-01-26 19:24:57,15.08839645,0.0001792,53.2182,168.8896,51.5557,308.5596,6.2512e-05,7.07e-06,0.0,0 STARLINK-5172,1 54064U 22136P   24026.80899651  .00000707  00000-0  62512-4 0  9997,2 54064  53.2182 168.8896 0001792  51.5557 308.5596 15.08839645 71277,6917.881,95.438,540.986,538.507,0.0
54064.0,STARLINK-5172,PAYLOAD,2024-01-27 14:29:34,15.08838698,0.000142,53.2171,165.3239,55.8976,304.215,0.00030514,4.572e-05,0.0,0 STARLINK-5172,1 54064U 22136P   24027.60387210  .00004572  00000-0  30514-3 0  9999,2 54064  53.2171 165.3239 0001420  55.8976 304.2150 15.08838698 70914,6917.884,95.438,540.732,538.767,0.0
54064.0,STARLINK-5172,PAYLOAD,2024-01-27 16:04:57,15.08837764,0.000134,53.2178,165.0261,63.9369,296.1761,0.00040239,6.122e-05,0.0,0 STARLINK-5172,1 54064U 22136P   24027.67011144  .00006122  00000-0  40239-3 0  9994,2 54064  53.2178 165.0261 0001340  63.9369 296.1761 15.08837764 70921,6917.887,95.438,540.679,538.825,0.0
54064.0,STARLINK-5172,PAYLOAD,2024-01-28 07:58:49,15.08840736,0.0001647,53.2179,162.0561,116.8603,243.2558,3.2166e-05,2.24e-06,0.0,0 STARLINK-5172,1 54064U 22136P   24028.33251774  .00000224  00000-0  32166-4 0  9991,2 54064  53.2179 162.0561 0001647 116.8603 243.2558 15.08840736 71506,6917.878,95.438,540.883,538.604,0.0
54064.0,STARLINK-5172,PAYLOAD,2024-01-28 14:20:22,15.0884069,0.0001334,53.2169,160.8664,98.9674,261.1469,2.4919e-05,1.09e-06,0.0,0 STARLINK-5172,1 54064U 22136P   24028.59747839  .00000109  00000-0  24919-4 0  9990,2 54064  53.2169 160.8664 0001334  98.9674 261.1469 15.08840690 71066,6917.878,95.438,540.666,538.82,0.0
54064.0,STARLINK-5172,PAYLOAD,2024-01-29 12:35:45,15.08845025,0.0001179,53.2177,156.708,98.176,261.9365,6.2612e-05,7.09e-06,0.0,0 STARLINK-5172,1 54064U 22136P   24029.52483296  .00000709  00000-0  62612-4 0  9996,2 54064  53.2177 156.7080 0001179  98.1760 261.9365 15.08845025 71684,6917.865,95.437,540.546,538.914,0.0
54064.0,STARLINK-5172,PAYLOAD,2024-01-30 14:01:56,15.08838366,0.0001288,53.2171,151.9466,105.0942,255.0192,0.00010729,1.42e-05,0.0,0 STARLINK-5172,1 54064U 22136P   24030.58467648  .00001420  00000-0  10729-3 0  9999,2 54064  53.2171 151.9466 0001288 105.0942 255.0192 15.08838366 71361,6917.885,95.438,540.641,538.859,0.0
54064.0,STARLINK-5172,PAYLOAD,2024-01-30 15:37:19,15.08839763,0.0001305,53.2174,151.6505,87.0243,273.0899,9.765e-05,1.267e-05,0.0,0 STARLINK-5172,1 54064U 22136P   24030.65091671  .00001267  00000-0  97650-4 0  9994,2 54064  53.2174 151.6505 0001305  87.0243 273.0899 15.08839763 71858,6917.881,95.438,540.649,538.843,0.0
54064.0,STARLINK-5172,PAYLOAD,2024-01-31 12:17:20,15.08837661,0.0001399,53.2174,147.7852,84.7992,275.316,6.8475e-05,8.02e-06,0.0,0 STARLINK-5172,1 54064U 22136P   24031.51203972  .00000802  00000-0  68475-4 0  9996,2 54064  53.2174 147.7852 0001399  84.7992 275.3160 15.08837661 71500,6917.888,95.438,540.72,538.785,0.0
54064.0,STARLINK-5172,PAYLOAD,2024-01-31 17:03:29,15.08842422,0.0001348,53.2176,146.8904,87.4451,272.6696,0.00011772,1.586e-05,0.0,0 STARLINK-5172,1 54064U 22136P   24031.71075522  .00001586  00000-0  11772-3 0  9993,2 54064  53.2176 146.8904 0001348  87.4451 272.6696 15.08842422 72016,6917.873,95.437,540.671,538.805,0.0
54064.0,STARLINK-5172,PAYLOAD,2024-02-01 12:08:07,15.08839188,0.0001628,53.2174,143.3178,101.5597,258.5578,2.2752e-05,7.4e-07,0.0,0 STARLINK-5172,1 54064U 22136P   24032.50564067  .00000074  00000-0  22752-4 0  9990,2 54064  53.2174 143.3178 0001628 101.5597 258.5578 15.08839188 72139,6917.883,95.438,540.874,538.622,0.0
54064.0,STARLINK-5172,PAYLOAD,2024-02-02 13:34:16,15.0884493,0.000158,53.2176,138.5571,104.1614,255.9554,0.00010905,1.448e-05,0.0,0 STARLINK-5172,1 54064U 22136P   24033.56547297  .00001448  00000-0  10905-3 0  9995,2 54064  53.2176 138.5571 0001580 104.1614 255.9554 15.08844930 71810,6917.865,95.437,540.823,538.637,0.0
54064.0,STARLINK-5172,PAYLOAD,2024-02-03 13:25:04,15.08838455,0.0001583,53.2185,134.1069,95.2982,264.8191,9.4295e-06,-1.38e-06,0.0,0 STARLINK-5172,1 54064U 22136P   24034.55908163 -.00000138  00000-0  94295-5 0  9990,2 54064  53.2185 134.1069 0001583  95.2982 264.8191 15.08838455 71962,6917.885,95.438,540.845,538.655,0.0
54064.0,STARLINK-5172,PAYLOAD,2024-02-03 16:35:50,15.08841175,0.0001477,53.218,133.5089,104.3183,255.7973,1.2517e-05,-8.9e-07,0.0,0 STARLINK-5172,1 54064U 22136P   24034.69155856 -.00000089  00000-0  12517-4 0  9999,2 54064  53.2180 133.5089 0001477 104.3183 255.7973 15.08841175 72465,6917.877,95.437,540.764,538.72,0.0
54064.0,STARLINK-5172,PAYLOAD,2024-02-04 13:15:50,15.08849368,0.0001397,53.218,129.6439,90.2173,269.8979,5.9064e-05,6.52e-06,0.0,0 STARLINK-5172,1 54064U 22136P   24035.55267320  .00000652  00000-0  59064-4 0  9998,2 54064  53.2180 129.6439 0001397  90.2173 269.8979 15.08849368 72119,6917.852,95.437,540.683,538.75,0.0
54064.0,STARLINK-5172,PAYLOAD,2024-02-05 11:31:15,15.08837182,0.0001574,53.2187,125.4839,94.6247,265.4925,4.7374e-05,4.66e-06,0.0,0 STARLINK-5172,1 54064U 22136P   24036.48004178  .00000466  00000-0  47374-4 0  9995,2 54064  53.2187 125.4839 0001574  94.6247 265.4925 15.08837182 72733,6917.889,95.438,540.843,538.665,0.0
54064.0,STARLINK-5172,PAYLOAD,2024-02-05 13:06:38,15.08837607,0.0001599,53.2185,125.1891,100.7339,259.3833,7.1398e-05,8.48e-06,0.0,0 STARLINK-5172,1 54064U 22136P   24036.54628129  .00000848  00000-0  71398-4 0  9997,2 54064  53.2185 125.1891 0001599 100.7339 259.3833 15.08837607 72264,6917.888,95.438,540.859,538.647,0.0
54064.0,STARLINK-5172,PAYLOAD,2024-02-06 12:57:25,15.08845621,0.000135,53.2171,120.728,90.3896,269.7251,4.0561e-05,3.58e-06,0.0,0 STARLINK-5172,1 54064U 22136P   24037.53987841  .00000358  00000-0  40561-4 0  9990,2 54064  53.2171 120.7280 0001350  90.3896 269.7251 15.08845621 72410,6917.863,95.437,540.662,538.794,0.0
